NORAD_CAT_ID,OBJECT_NAME,OBJECT_TYPE,EPOCH,MEAN_MOTION,ECCENTRICITY,INCLINATION,RA_OF_ASC_NODE,ARG_OF_PERICENTER,MEAN_ANOMALY,BSTAR,MEAN_MOTION_DOT,MEAN_MOTION_DDOT,TLE_LINE0,TLE_LINE1,TLE_LINE2,SEMIMAJOR_AXIS,PERIOD,APOGEE,PERIGEE,DECAYED
53145.0,STARLINK-4106,PAYLOAD,2023-03-28 02:33:59,15.08852714,0.0001295,53.2164,331.5802,86.5631,273.5509,0.00056026,8.643e-05,0.0,0 STARLINK-4106,1 53145U 22083P   23087.10694171  .00008643  00000-0  56026-3 0  9995,2 53145  53.2164 331.5802 0001295  86.5631 273.5509 15.08852714 39171,6917.842,95.437,540.602,538.811,0.0
53145.0,STARLINK-4106,PAYLOAD,2023-03-28 21:38:37,15.08844712,0.0001186,53.216,328.0102,89.4956,270.6172,4.8725e-05,4.88e-06,0.0,0 STARLINK-4106,1 53145U 22083P   23087.90182203  .00000488  00000-0  48725-4 0  9998,2 53145  53.2160 328.0102 0001186  89.4956 270.6172 15.08844712 39298,6917.866,95.437,540.551,538.911,0.0
53145.0,STARLINK-4106,PAYLOAD,2023-03-29 02:24:46,15.08860835,0.0001182,53.2163,327.1183,101.2868,258.8257,0.00035207,5.323e-05,0.0,0 STARLINK-4106,1 53145U 22083P   23088.10053532  .00005323  00000-0  35207-3 0  9996,2 53145  53.2163 327.1183 0001182 101.2868 258.8257 15.08860835 39321,6917.817,95.436,540.499,538.864,0.0
53145.0,STARLINK-4106,PAYLOAD,2023-03-29 19:54:01,15.08841024,0.0001241,53.2161,323.8475,99.0078,261.1055,-0.00010762,-2e-05,0.0,0 STARLINK-4106,1 53145U 22083P   23088.82918254 -.00002000  00000-0 -10762-3 0  9996,2 53145  53.2161 323.8475 0001241  99.0078 261.1055 15.08841024 38803,6917.877,95.437,540.601,538.884,0.0
53145.0,STARLINK-4106,PAYLOAD,2023-03-30 00:40:10,15.08842922,0.0001334,53.216,322.9554,99.4378,260.6765,2.6616e-05,1.36e-06,0.0,0 STARLINK-4106,1 53145U 22083P   23089.02790071  .00000136  00000-0  26616-4 0  9996,2 53145  53.2160 322.9554 0001334  99.4378 260.6765 15.08842922 39463,6917.871,95.437,540.659,538.814,0.0
53145.0,STARLINK-4106,PAYLOAD,2023-03-30 21:20:11,15.08842246,0.0001721,53.2156,319.0931,66.7234,293.3939,0.00012002,1.623e-05,0.0,0 STARLINK-4106,1 53145U 22083P   23089.88902637  .00001623  00000-0  12002-3 0  9998,2 53145  53.2156 319.0931 0001721  66.7234 293.3939 15.08842246 38961,6917.874,95.437,540.929,538.548,0.0
53145.0,STARLINK-4106,PAYLOAD,2023-03-31 21:10:58,15.08846275,9.78e-05,53.2156,314.6308,105.8788,254.2312,0.0002524,3.732e-05,0.0,0 STARLINK-4106,1 53145U 22083P   23090.88262546  .00003732  00000-0  25240-3 0  9999,2 53145  53.2156 314.6308 0000978 105.8788 254.2312 15.08846275 39746,6917.861,95.437,540.403,539.05,0.0
53145.0,STARLINK-4106,PAYLOAD,2023-04-01 09:54:04,15.08834084,7.67e-05,53.2161,312.2507,114.0176,246.0897,7.5103e-05,9.08e-06,0.0,0 STARLINK-4106,1 53145U 22083P   23091.41254905  .00000908  00000-0  75103-4 0  9995,2 53145  53.2161 312.2507 0000767 114.0176 246.0897 15.08834084 39827,6917.898,95.438,540.294,539.233,0.0
53145.0,STARLINK-4106,PAYLOAD,2023-04-01 21:01:46,15.08840842,7.91e-05,53.2158,310.171,84.8298,275.2784,0.00013236,1.82e-05,0.0,0 STARLINK-4106,1 53145U 22083P   23091.87623021  .00001820  00000-0  13236-3 0  9996,2 53145  53.2158 310.1710 0000791  84.8298 275.2784 15.08840842 39268,6917.878,95.438,540.29,539.196,0.0
53145.0,STARLINK-4106,PAYLOAD,2023-04-02 09:44:51,15.08846027,8.62e-05,53.2154,307.7923,78.912,281.1969,0.00036899,5.591e-05,0.0,0 STARLINK-4106,1 53145U 22083P   23092.40614948  .00005591  00000-0  36899-3 0  9993,2 53145  53.2154 307.7923 0000862  78.9120 281.1969 15.08846027 39340,6917.862,95.437,540.323,539.131,0.0
53145.0,STARLINK-4106,PAYLOAD,2023-04-02 20:52:33,15.0885021,8.52e-05,53.2153,305.7105,82.16,277.9488,0.00036247,5.487e-05,0.0,0 STARLINK-4106,1 53145U 22083P   23092.86982729  .00005487  00000-0  36247-3 0  9999,2 53145  53.2153 305.7105 0000852  82.1600 277.9488 15.08850210 40045,6917.849,95.437,540.304,539.125,0.0
53145.0,STARLINK-4106,PAYLOAD,2023-04-03 14:21:47,15.08844103,0.0001045,53.215,302.4395,78.9775,281.1335,0.00019637,2.839e-05,0.0,0 STARLINK-4106,1 53145U 22083P   23093.59846975  .00002839  00000-0  19637-3 0  9994,2 53145  53.2150 302.4395 0001045  78.9775 281.1335 15.08844103 39521,6917.868,95.437,540.456,539.01,0.0
53145.0,STARLINK-4106,PAYLOAD,2023-04-03 20:43:20,15.08845135,9.14e-05,53.2148,301.2492,93.7533,266.3563,0.00018705,2.691e-05,0.0,0 STARLINK-4106,1 53145U 22083P   23093.86342825  .00002691  00000-0  18705-3 0  9990,2 53145  53.2148 301.2492 0000914  93.7533 266.3563 15.08845135 40193,6917.865,95.437,540.362,539.097,0.0
53145.0,STARLINK-4106,PAYLOAD,2023-04-04 06:15:38,15.08843576,0.0001085,53.2142,299.4633,90.0649,270.0467,9.7336e-05,1.262e-05,0.0,0 STARLINK-4106,1 53145U 22083P   23094.26086802  .00001262  00000-0  97336-4 0  9996,2 53145  53.2142 299.4633 0001085  90.0649 270.0467 15.08843576 39628,6917.869,95.437,540.485,538.984,0.0
53145.0,STARLINK-4106,PAYLOAD,2023-04-04 23:44:53,15.08838534,0.0001098,53.214,296.1921,95.1698,264.942,1.743e-05,-1e-07,0.0,0 STARLINK-4106,1 53145U 22083P   23094.98950990 -.00000010  00000-0  17430-4 0  9991,2 53145  53.2140 296.1921 0001098  95.1698 264.9420 15.08838534 40366,6917.885,95.438,540.509,538.99,0.0
53145.0,STARLINK-4106,PAYLOAD,2023-04-05 20:24:54,15.08838848,0.0001223,53.2152,292.3245,94.384,265.7292,-1.8601e-05,-5.84e-06,0.0,0 STARLINK-4106,1 53145U 22083P   23095.85063308 -.00000584  00000-0 -18601-4 0  9994,2 53145  53.2152 292.3245 0001223  94.3840 265.7292 15.08838848 39863,6917.884,95.438,540.595,538.903,0.0
53145.0,STARLINK-4106,PAYLOAD,2023-04-06 05:57:13,15.08835264,0.0001143,53.2148,290.5416,85.8373,274.2749,0.00017099,2.434e-05,0.0,0 STARLINK-4106,1 53145U 22083P   23096.24807626  .00002434  00000-0  17099-3 0  9990,2 53145  53.2148 290.5416 0001143  85.8373 274.2749 15.08835264 40554,6917.895,95.438,540.551,538.969,0.0
53145.0,STARLINK-4106,PAYLOAD,2023-04-06 12:18:46,15.08836905,0.0001085,53.2145,289.3523,84.6625,275.4491,8.3354e-05,1.039e-05,0.0,0 STARLINK-4106,1 53145U 22083P   23096.51303577  .00001039  00000-0  83354-4 0  9994,2 53145  53.2145 289.3523 0001085  84.6625 275.4491 15.08836905 39961,6917.89,95.438,540.505,539.004,0.0
53145.0,STARLINK-4106,PAYLOAD,2023-04-06 15:29:32,15.08839823,0.0001056,53.2154,288.7581,87.1427,272.9686,0.00011284,1.509e-05,0.0,0 STARLINK-4106,1 53145U 22083P   23096.64551527  .00001509  00000-0  11284-3 0  9992,2 53145  53.2154 288.7581 0001056  87.1427 272.9686 15.08839823 39986,6917.881,95.438,540.476,539.015,0.0
53145.0,STARLINK-4106,PAYLOAD,2023-04-07 12:09:33,15.08839647,0.0001012,53.2153,284.8926,86.6453,273.4655,0.00017965,2.572e-05,0.0,0 STARLINK-4106,1 53145U 22083P   23097.50663631  .00002572  00000-0  17965-3 0  9991,2 53145  53.2153 284.8926 0001012  86.6453 273.4655 15.08839647 40742,6917.881,95.438,540.447,539.046,0.0
53145.0,STARLINK-4106,PAYLOAD,2023-04-08 05:38:47,15.08841718,0.0001024,53.2145,281.6208,80.2787,279.8321,8.7926e-05,1.112e-05,0.0,0 STARLINK-4106,1 53145U 22083P   23098.23527551  .00001112  00000-0  87926-4 0  9996,2 53145  53.2145 281.6208 0001024  80.2787 279.8321 15.08841718 40229,6917.875,95.437,540.449,539.032,0.0
53145.0,STARLINK-4106,PAYLOAD,2023-04-08 18:21:53,15.08841038,0.0001086,53.2151,279.2418,83.6306,276.4809,5.2069e-05,5.41e-06,0.0,0 STARLINK-4106,1 53145U 22083P   23098.76519762  .00000541  00000-0  52069-4 0  9994,2 53145  53.2151 279.2418 0001086  83.6306 276.4809 15.08841038 40931,6917.877,95.437,540.493,538.991,0.0
53145.0,STARLINK-4106,PAYLOAD,2023-04-09 11:51:07,15.08838736,0.0001129,53.2153,275.9703,87.6836,272.4285,4.0988e-05,3.65e-06,0.0,0 STARLINK-4106,1 53145U 22083P   23099.49383867  .00000365  00000-0  40988-4 0  9991,2 53145  53.2153 275.9703 0001129  87.6836 272.4285 15.08838736 40411,6917.884,95.438,540.53,538.968,0.0
53145.0,STARLINK-4106,PAYLOAD,2023-04-09 18:12:39,15.08841553,0.0001126,53.215,274.7812,84.4813,275.6307,6.5474e-05,7.54e-06,0.0,0 STARLINK-4106,1 53145U 22083P   23099.75879605  .00000754  00000-0  65474-4 0  9999,2 53145  53.2150 274.7812 0001126  84.4813 275.6307 15.08841553 40458,6917.876,95.437,540.52,538.962,0.0
53145.0,STARLINK-4106,PAYLOAD,2023-04-10 11:41:54,15.08840572,0.0001023,53.2152,271.511,77.7309,282.3798,0.00011234,1.501e-05,0.0,0 STARLINK-4106,1 53145U 22083P   23100.48743579  .00001501  00000-0  11234-3 0  9997,2 53145  53.2152 271.5110 0001023  77.7309 282.3798 15.08840572 41198,6917.879,95.438,540.451,539.036,0.0
53145.0,STARLINK-4106,PAYLOAD,2023-04-10 18:03:26,15.08846572,0.0001025,53.2153,270.3208,83.0701,277.0408,0.00015403,2.165e-05,0.0,0 STARLINK-4106,1 53145U 22083P   23100.75239070  .00002165  00000-0  15403-3 0  9992,2 53145  53.2153 270.3208 0001025  83.0701 277.0408 15.08846572 40602,6917.86,95.437,540.434,539.016,0.0
53145.0,STARLINK-4106,PAYLOAD,2023-04-11 11:32:41,15.08836341,6.84e-05,53.2158,267.0506,74.2941,285.8126,5.769e-05,6.31e-06,0.0,0 STARLINK-4106,1 53145U 22083P   23101.48103938  .00000631  00000-0  57690-4 0  9997,2 53145  53.2158 267.0506 0000684  74.2941 285.8126 15.08836341 41348,6917.892,95.438,540.23,539.283,0.0
53145.0,STARLINK-4106,PAYLOAD,2023-04-11 17:54:13,15.08841782,9.49e-05,53.2148,265.86,89.8188,270.2913,9.262e-05,1.187e-05,0.0,0 STARLINK-4106,1 53145U 22083P   23101.74599494  .00001187  00000-0  92620-4 0  9991,2 53145  53.2148 265.8600 0000949  89.8188 270.2913 15.08841782 40758,6917.875,95.437,540.396,539.083,0.0
53145.0,STARLINK-4106,PAYLOAD,2023-04-12 11:23:29,15.08828444,5.96e-05,53.2167,262.5898,68.63,291.4756,-9.4897e-05,-1.797e-05,0.0,0 STARLINK-4106,1 53145U 22083P   23102.47464860 -.00001797  00000-0 -94897-4 0  9997,2 53145  53.2167 262.5898 0000596  68.6300 291.4756 15.08828444 40863,6917.916,95.438,540.193,539.368,0.0
53145.0,STARLINK-4106,PAYLOAD,2023-04-13 03:17:20,15.08831312,0.0001289,53.2206,259.617,90.2228,269.8912,3.8581e-05,3.26e-06,0.0,0 STARLINK-4106,1 53145U 22083P   23103.13704748  .00000326  00000-0  38581-4 0  9996,2 53145  53.2206 259.6170 0001289  90.2228 269.8912 15.08831312 40969,6917.907,95.438,540.664,538.88,0.0
